[{"OBJECT_NAME":"STARLINK-3358","OBJECT_ID":"2022-005F","EPOCH":"2026-03-09T22:15:10.403136","MEAN_MOTION":15.0883983,"ECCENTRICITY":0.00012483,"INCLINATION":53.2177,"RA_OF_ASC_NODE":288.0056,"ARG_OF_PERICENTER":84.5569,"MEAN_ANOMALY":275.5566,"EPHEMERIS_TYPE":0,"CLASSIFICATION_TYPE":"U","NORAD_CAT_ID":51109,"ELEMENT_SET_NO":999,"REV_AT_EPOCH":22868,"BSTAR":2.5979923e-5,"MEAN_MOTION_DOT":1.26e-6,"MEAN_MOTION_DDOT":0},{"OBJECT_NAME":"NANOFF A","OBJECT_ID":"2023-185T","EPOCH":"2026-03-09T23:34:34.415328","MEAN_MOTION":15.11542977,"ECCENTRICITY":0.00086783,"INCLINATION":97.5359,"RA_OF_ASC_NODE":137.8345,"ARG_OF_PERICENTER":292.8968,"MEAN_ANOMALY":67.1346,"EPHEMERIS_TYPE":0,"CLASSIFICATION_TYPE":"U","NORAD_CAT_ID":58810,"ELEMENT_SET_NO":999,"REV_AT_EPOCH":11805,"BSTAR":0.00027314844,"MEAN_MOTION_DOT":4.57e-5,"MEAN_MOTION_DDOT":0}]
